start=new Date('2022-02-08T00:00:00.000Z').valueOf();
sats=[{"RA_OF_ASC_NODE":"149.9132","PERIAPSIS":"546.233","EPHEMERIS_TYPE":"0","RCS_SIZE":"LARGE","TIME_SYSTEM":"UTC","REF_FRAME":"TEME","MEAN_ANOMALY":"276.9352","TLE_LINE1":"1 46172U 20057BH  22038.70656915  .00000700  00000-0  65938-4 0  9990","BSTAR":"0.00006593800000","COUNTRY_CODE":"US","OBJECT_ID":"2020-057BH","LAUNCH_DATE":"2020-08-18","CENTER_NAME":"EARTH","CLASSIFICATION_TYPE":"U","REV_AT_EPOCH":"8227","SEMIMAJOR_AXIS":"6925.392","ARG_OF_PERICENTER":"83.1805","MEAN_MOTION":"15.06385980","PERIOD":"95.593","OBJECT_NAME":"STARLINK-1635","APOAPSIS":"548.280","TLE_LINE2":"2 46172  53.0548 149.9132 0001478  83.1805 276.9352 15.06385980 82279","SITE":"AFETR","MEAN_ELEMENT_THEORY":"SGP4","NORAD_CAT_ID":"46172","FILE":"3294399","EPOCH":"2022-02-07T16:57:27.574560","MEAN_MOTION_DOT":"0.00000700","GP_ID":"195484803","ELEMENT_SET_NO":"999","ECCENTRICITY":"0.00014780","MEAN_MOTION_DDOT":"0.0000000000000","DECAY_DATE":null,"INCLINATION":"53.0548","OBJECT_TYPE":"PAYLOAD"},{"ARG_OF_PERICENTER":"76.5571","PERIOD":"95.593","MEAN_MOTION":"15.06392377","OBJECT_NAME":"STARLINK-1640","TLE_LINE2":"2 46173  53.0547 169.7007 0001366  76.5571 283.5570 15.06392377 82007","SITE":"AFETR","APOAPSIS":"548.183","MEAN_ELEMENT_THEORY":"SGP4","NORAD_CAT_ID":"46173","MEAN_MOTION_DOT":"0.00000377","FILE":"3294400","EPOCH":"2022-02-07T18:03:49.094784","ECCENTRICITY":"0.00013660","ELEMENT_SET_NO":"999","GP_ID":"195484486","DECAY_DATE":null,"MEAN_MOTION_DDOT":"0.0000000000000","INCLINATION":"53.0547","OBJECT_TYPE":"PAYLOAD","RA_OF_ASC_NODE":"169.7007","EPHEMERIS_TYPE":"0","PERIAPSIS":"546.291","RCS_SIZE":"LARGE","TIME_SYSTEM":"UTC","REF_FRAME":"TEME","MEAN_ANOMALY":"283.5570","BSTAR":"0.00004423300000","COUNTRY_CODE":"US","OBJECT_ID":"2020-057BJ","TLE_LINE1":"1 46173U 20057BJ  22038.75265156  .00000377  00000-0  44233-4 0  9994","REV_AT_EPOCH":"8200","CENTER_NAME":"EARTH","LAUNCH_DATE":"2020-08-18","CLASSIFICATION_TYPE":"U","SEMIMAJOR_AXIS":"6925.372"},{"RA_OF_ASC_NODE":"169.9604","PERIAPSIS":"546.331","EPHEMERIS_TYPE":"0","RCS_SIZE":"LARGE","TIME_SYSTEM":"UTC","REF_FRAME":"TEME","MEAN_ANOMALY":"286.4820","TLE_LINE1":"1 46174U 20057BK  22038.69366108  .00001684  00000-0  13190-3 0  9996","COUNTRY_CODE":"US","BSTAR":"0.00013190000000","OBJECT_ID":"2020-057BK","LAUNCH_DATE":"2020-08-18","CLASSIFICATION_TYPE":"U","CENTER_NAME":"EARTH","REV_AT_EPOCH":"8199","SEMIMAJOR_AXIS":"6925.361","ARG_OF_PERICENTER":"73.6311","MEAN_MOTION":"15.06395954","PERIOD":"95.592","OBJECT_NAME":"STARLINK-1641","APOAPSIS":"548.121","TLE_LINE2":"2 46174  53.0549 169.9604 0001292  73.6311 286.4820 15.06395954 81994","SITE":"AFETR","MEAN_ELEMENT_THEORY":"SGP4","NORAD_CAT_ID":"46174","FILE":"3294400","EPOCH":"2022-02-07T16:38:52.317312","MEAN_MOTION_DOT":"0.00001684","ELEMENT_SET_NO":"999","GP_ID":"195484811","ECCENTRICITY":"0.00012920","MEAN_MOTION_DDOT":"0.0000000000000","DECAY_DATE":null,"INCLINATION":"53.0549","OBJECT_TYPE":"PAYLOAD"},{"RA_OF_ASC_NODE":"184.6155","RCS_SIZE":"LARGE","EPHEMERIS_TYPE":"0","PERIAPSIS":"546.229","REF_FRAME":"TEME","TIME_SYSTEM":"UTC","BSTAR":"-0.00009562700000","COUNTRY_CODE":"US","OBJECT_ID":"2020-062A","TLE_LINE1":"1 46325U 20062A   22038.77153345 -.00001705  00000-0 -95627-4 0  9998","MEAN_ANOMALY":"287.0465","SEMIMAJOR_AXIS":"6925.394","REV_AT_EPOCH":"8081","LAUNCH_DATE":"2020-09-03","CENTER_NAME":"EARTH","CLASSIFICATION_TYPE":"U","PERIOD":"95.593","MEAN_MOTION":"15.06385101","ARG_OF_PERICENTER":"73.0687","SITE":"AFETR","TLE_LINE2":"2 46325  53.0547 184.6155 0001488  73.0687 287.0465 15.06385101 80817","APOAPSIS":"548.290","OBJECT_NAME":"STARLINK-1734","MEAN_ELEMENT_THEORY":"SGP4","MEAN_MOTION_DOT":"-0.00001705","FILE":"3294478","EPOCH":"2022-02-07T18:31:00.490080","NORAD_CAT_ID":"46325","ECCENTRICITY":"0.00014880","ELEMENT_SET_NO":"999","GP_ID":"195486187","INCLINATION":"53.0547","DECAY_DATE":null,"MEAN_MOTION_DDOT":"0.0000000000000","OBJECT_TYPE":"PAYLOAD"},{"DECAY_DATE":null,"MEAN_MOTION_DDOT":"0.0000000000000","INCLINATION":"53.0552","OBJECT_TYPE":"PAYLOAD","NORAD_CAT_ID":"46326","EPOCH":"2022-02-07T19:30:02.877120","FILE":"3294416","MEAN_MOTION_DOT":"-0.00002295","GP_ID":"195484892","ELEMENT_SET_NO":"999","ECCENTRICITY":"0.00018040","OBJECT_NAME":"STARLINK-1654","APOAPSIS":"548.482","SITE":"AFETR","TLE_LINE2":"2 46326  53.0552 229.4161 0001804  77.4770 282.6421 15.06393680 79780","MEAN_ELEMENT_THEORY":"SGP4","ARG_OF_PERICENTER":"77.4770","MEAN_MOTION":"15.06393680","PERIOD":"95.593","CLASSIFICATION_TYPE":"U","LAUNCH_DATE":"2020-09-03","CENTER_NAME":"EARTH","REV_AT_EPOCH":"7978","SEMIMAJOR_AXIS":"6925.368","MEAN_ANOMALY":"282.6421","TLE_LINE1":"1 46326U 20062B   22038.81253330 -.00002295  00000-0 -13521-3 0  9996","BSTAR":"-0.00013521000000","COUNTRY_CODE":"US","OBJECT_ID":"2020-062B","PERIAPSIS":"545.984","EPHEMERIS_TYPE":"0","RCS_SIZE":"LARGE","TIME_SYSTEM":"UTC","REF_FRAME":"TEME","RA_OF_ASC_NODE":"229.4161"},{"ARG_OF_PERICENTER":"76.6442","PERIOD":"95.593","MEAN_MOTION":"15.06379337","OBJECT_NAME":"STARLINK-1673","SITE":"AFETR","TLE_LINE2":"2 46327  53.0540 230.7241 0001583  76.6442 283.4723 15.06379337 79555","APOAPSIS":"548.373","MEAN_ELEMENT_THEORY":"SGP4","NORAD_CAT_ID":"46327","MEAN_MOTION_DOT":"-0.00000238","FILE":"3294379","EPOCH":"2022-02-07T12:37:23.564352","ECCENTRICITY":"0.00015830","ELEMENT_SET_NO":"999","GP_ID":"195480348","DECAY_DATE":null,"MEAN_MOTION_DDOT":"0.0000000000000","INCLINATION":"53.0540","OBJECT_TYPE":"PAYLOAD","RA_OF_ASC_NODE":"230.7241","EPHEMERIS_TYPE":"0","PERIAPSIS":"546.181","RCS_SIZE":"LARGE","TIME_SYSTEM":"UTC","REF_FRAME":"TEME","MEAN_ANOMALY":"283.4723","BSTAR":"0.00000294100000","COUNTRY_CODE":"US","OBJECT_ID":"2020-062C","TLE_LINE1":"1 46327U 20062C   22038.52596718 -.00000238  00000-0  29410-5 0  9995","REV_AT_EPOCH":"7955","CENTER_NAME":"EARTH","LAUNCH_DATE":"2020-09-03","CLASSIFICATION_TYPE":"U","SEMIMAJOR_AXIS":"6925.412"},{"MEAN_ELEMENT_THEORY":"SGP4","OBJECT_NAME":"STARLINK-1686","TLE_LINE2":"2 46328  53.0550 210.8045 0001557  69.0288 291.0867 15.06394015 79838","SITE":"AFETR","APOAPSIS":"548.310","ARG_OF_PERICENTER":"69.0288","PERIOD":"95.593","MEAN_MOTION":"15.06394015","OBJECT_TYPE":"PAYLOAD","DECAY_DATE":null,"MEAN_MOTION_DDOT":"0.0000000000000","INCLINATION":"53.0550","ECCENTRICITY":"0.00015570","ELEMENT_SET_NO":"999","GP_ID":"195480600","NORAD_CAT_ID":"46328","MEAN_MOTION_DOT":"-0.00001804","FILE":"3294379","EPOCH":"2022-02-07T12:08:11.333472","TIME_SYSTEM":"UTC","REF_FRAME":"TEME","EPHEMERIS_TYPE":"0","PERIAPSIS":"546.154","RCS_SIZE":"LARGE","RA_OF_ASC_NODE":"210.8045","REV_AT_EPOCH":"7983","CENTER_NAME":"EARTH","LAUNCH_DATE":"2020-09-03","CLASSIFICATION_TYPE":"U","SEMIMAJOR_AXIS":"6925.367","MEAN_ANOMALY":"291.0867","BSTAR":"-0.00010227000000","COUNTRY_CODE":"US","OBJECT_ID":"2020-062D","TLE_LINE1":"1 46328U 20062D   22038.50568673 -.00001804  00000-0 -10227-3 0  9998"},{"MEAN_MOTION":"15.06386364","PERIOD":"95.593","ARG_OF_PERICENTER":"71.2742","MEAN_ELEMENT_THEORY":"SGP4","APOAPSIS":"548.416","TLE_LINE2":"2 46329  53.0537 210.9472 0001676  71.2742 288.8429 15.06386364 79826","SITE":"AFETR","OBJECT_NAME":"STARLINK-1695","ELEMENT_SET_NO":"999","GP_ID":"195480851","ECCENTRICITY":"0.00016760","EPOCH":"2022-02-07T11:20:25.134432","FILE":"3294379","MEAN_MOTION_DOT":"-0.00001657","NORAD_CAT_ID":"46329","OBJECT_TYPE":"PAYLOAD","INCLINATION":"53.0537","DECAY_DATE":null,"MEAN_MOTION_DDOT":"0.0000000000000","RA_OF_ASC_NODE":"210.9472","REF_FRAME":"TEME","TIME_SYSTEM":"UTC","RCS_SIZE":"LARGE","PERIAPSIS":"546.095","EPHEMERIS_TYPE":"0","TLE_LINE1":"1 46329U 20062E   22038.47251313 -.00001657  00000-0 -92392-4 0  9995","BSTAR":"-0.00009239200000","COUNTRY_CODE":"US","OBJECT_ID":"2020-062E","MEAN_ANOMALY":"288.8429","SEMIMAJOR_AXIS":"6925.390","LAUNCH_DATE":"2020-09-03","CLASSIFICATION_TYPE":"U","CENTER_NAME":"EARTH","REV_AT_EPOCH":"7982"},{"ARG_OF_PERICENTER":"73.6667","PERIOD":"95.591","MEAN_MOTION":"15.06411767","OBJECT_NAME":"STARLINK-1710","TLE_LINE2":"2 46330  53.0532 209.5069 0001674  73.6667 286.4505 15.06411767 79880","SITE":"AFETR","APOAPSIS":"548.337","MEAN_ELEMENT_THEORY":"SGP4","NORAD_CAT_ID":"46330","MEAN_MOTION_DOT":"-0.00001913","FILE":"3294508","EPOCH":"2022-02-07T19:02:10.402944","ECCENTRICITY":"0.00016740","ELEMENT_SET_NO":"999","GP_ID":"195487575","DECAY_DATE":null,"MEAN_MOTION_DDOT":"0.0000000000000","INCLINATION":"53.0532","OBJECT_TYPE":"PAYLOAD","RA_OF_ASC_NODE":"209.5069","EPHEMERIS_TYPE":"0","PERIAPSIS":"546.018","RCS_SIZE":"LARGE","TIME_SYSTEM":"UTC","REF_FRAME":"TEME","MEAN_ANOMALY":"286.4505","COUNTRY_CODE":"US","BSTAR":"-0.00010951000000","OBJECT_ID":"2020-062F","TLE_LINE1":"1 46330U 20062F   22038.79317596 -.00001913  00000-0 -10951-3 0  9993","REV_AT_EPOCH":"7988","CENTER_NAME":"EARTH","LAUNCH_DATE":"2020-09-03","CLASSIFICATION_TYPE":"U","SEMIMAJOR_AXIS":"6925.312"},{"RA_OF_ASC_NODE":"232.9404","REF_FRAME":"TEME","TIME_SYSTEM":"UTC","RCS_SIZE":"LARGE","EPHEMERIS_TYPE":"0","PERIAPSIS":"546.035","COUNTRY_CODE":"US","OBJECT_ID":"2020-062G","BSTAR":"0.00002019000000","TLE_LINE1":"1 46331U 20062G   22038.03204195  .00000019  00000-0  20190-4 0  9992","MEAN_ANOMALY":"286.0404","SEMIMAJOR_AXIS":"6925.349","REV_AT_EPOCH":"7948","LAUNCH_DATE":"2020-09-03","CLASSIFICATION_TYPE":"U","CENTER_NAME":"EARTH","PERIOD":"95.592","MEAN_MOTION":"15.06399755","ARG_OF_PERICENTER":"74.0773","MEAN_ELEMENT_THEORY":"SGP4","SITE":"AFETR","TLE_LINE2":"2 46331  53.0514 232.9404 0001703  74.0773 286.0404 15.06399755 79482","APOAPSIS":"548.394","OBJECT_NAME":"STARLINK-1719","ECCENTRICITY":"0.00017030","GP_ID":"195479849","ELEMENT_SET_NO":"999","MEAN_MOTION_DOT":"0.00000019","FILE":"3294379","EPOCH":"2022-02-07T00:46:08.424480","NORAD_CAT_ID":"46331","OBJECT_TYPE":"PAYLOAD","INCLINATION":"53.0514","MEAN_MOTION_DDOT":"0.0000000000000","DECAY_DATE":null}];
